HIMAWARI-8              
1 40267U 14060A   23263.99476595 -.00000270  00000+0  00000+0 0  9998
2 40267   0.0201 249.1442 0000732 329.9053 279.3292  1.00270215 32831
